NORAD_CAT_ID,OBJECT_NAME,OBJECT_TYPE,EPOCH,MEAN_MOTION,ECCENTRICITY,INCLINATION,RA_OF_ASC_NODE,ARG_OF_PERICENTER,MEAN_ANOMALY,BSTAR,MEAN_MOTION_DOT,MEAN_MOTION_DDOT,TLE_LINE0,TLE_LINE1,TLE_LINE2,SEMIMAJOR_AXIS,PERIOD,APOGEE,PERIGEE,DECAYED
50157.0,STARLINK-3313,PAYLOAD,2022-12-01 09:36:58,15.08839529,0.0002681,53.2175,220.4937,36.8415,323.2761,2.1991e-05,6.1e-07,0.0,0 STARLINK-3313,1 50157U 21125B   22335.40067361  .00000061  00000-0  21991-4 0  9994,2 50157  53.2175 220.4937 0002681  36.8415 323.2761 15.08839529 56201,6917.882,95.438,541.602,537.8919999999998,0.0
50157.0,STARLINK-3313,PAYLOAD,2022-12-01 19:09:16,15.08831979,0.0002603,53.2173,218.7092,35.3164,324.8,0.0002408,3.545e-05,0.0,0 STARLINK-3313,1 50157U 21125B   22335.79811213  .00003545  00000-0  24080-3 0  9990,2 50157  53.2173 218.7092 0002603  35.3164 324.8000 15.08831979 56260,6917.905,95.438,541.571,537.969,0.0
50157.0,STARLINK-3313,PAYLOAD,2022-12-02 01:30:49,15.08839895,0.000269,53.2174,217.5203,37.281,322.8369,0.00030089,4.504e-05,0.0,0 STARLINK-3313,1 50157U 21125B   22336.06306799  .00004504  00000-0  30089-3 0  9991,2 50157  53.2174 217.5203 0002690  37.2810 322.8369 15.08839895 56303,6917.880999999999,95.438,541.607,537.885,0.0
50157.0,STARLINK-3313,PAYLOAD,2022-12-02 19:00:03,15.08844772,0.0002737,53.2173,214.2494,39.2647,320.8543,0.00018844,2.712e-05,0.0,0 STARLINK-3313,1 50157U 21125B   22336.79170934  .00002712  00000-0  18844-3 0  9995,2 50157  53.2173 214.2494 0002737  39.2647 320.8543 15.08844772 56414,6917.866,95.437,541.624,537.837,0.0
50157.0,STARLINK-3313,PAYLOAD,2022-12-03 01:21:36,15.08845988,0.0002793,53.2165,213.0603,39.2077,320.9117,0.00017592,2.513e-05,0.0,0 STARLINK-3313,1 50157U 21125B   22337.05667043  .00002513  00000-0  17592-3 0  9995,2 50157  53.2165 213.0603 0002793  39.2077 320.9117 15.08845988 53328,6917.861999999999,95.437,541.659,537.795,0.0
50157.0,STARLINK-3313,PAYLOAD,2022-12-03 09:18:32,15.08837481,0.000286,53.2163,211.5736,39.768,320.3522,-1.0302e-05,-4.53e-06,0.0,0 STARLINK-3313,1 50157U 21125B   22337.38787464 -.00000453  00000-0 -10302-4 0  9997,2 50157  53.2163 211.5736 0002860  39.7680 320.3522 15.08837481 53374,6917.888000000001,95.438,541.732,537.775,0.0
50157.0,STARLINK-3313,PAYLOAD,2022-12-03 15:40:04,15.08844171,0.000334,53.2168,210.385,38.9376,321.1856,-1.6867e-05,-5.57e-06,0.0,0 STARLINK-3313,1 50157U 21125B   22337.65282794 -.00000557  00000-0 -16867-4 0  9990,2 50157  53.2168 210.3850 0003340  38.9376 321.1856 15.08844171 53418,6917.868,95.437,542.043,537.422,0.0
50157.0,STARLINK-3313,PAYLOAD,2022-12-03 20:26:14,15.0884212,0.0003115,53.2161,209.4929,36.5941,323.5264,-2.0573e-05,-6.16e-06,0.0,0 STARLINK-3313,1 50157U 21125B   22337.85155167 -.00000616  00000-0 -20573-4 0  9990,2 50157  53.2161 209.4929 0003115  36.5941 323.5264 15.08842120 56570,6917.874,95.437,541.894,537.5840000000002,0.0
50157.0,STARLINK-3313,PAYLOAD,2022-12-04 02:47:46,15.08850766,0.0002766,53.217,208.3022,39.2124,320.9068,6.2371e-06,-1.89e-06,0.0,0 STARLINK-3313,1 50157U 21125B   22338.11650618 -.00000189  00000-0  62371-5 0  9998,2 50157  53.2170 208.3022 0002766  39.2124 320.9068 15.08850766 56619,6917.847,95.437,541.626,537.799,0.0
50157.0,STARLINK-3313,PAYLOAD,2022-12-04 17:06:14,15.08855857,0.00027,53.217,205.6261,41.488,318.6317,-0.00015197,-2.708e-05,0.0,0 STARLINK-3313,1 50157U 21125B   22338.71266640 -.00002708  00000-0 -15197-3 0  9994,2 50157  53.2170 205.6261 0002700  41.4880 318.6317 15.08855857 53575,6917.831999999999,95.437,541.565,537.8290000000002,0.0
50157.0,STARLINK-3313,PAYLOAD,2022-12-04 20:17:00,15.08857426,0.0002642,53.2171,205.0313,41.3329,318.7863,-0.00018037,-3.16e-05,0.0,0 STARLINK-3313,1 50157U 21125B   22338.84514520 -.00003160  00000-0 -18037-3 0  9990,2 50157  53.2171 205.0313 0002642  41.3329 318.7863 15.08857426 56721,6917.8269999999975,95.436,541.52,537.864,0.0
50157.0,STARLINK-3313,PAYLOAD,2022-12-05 01:03:14,15.08663617,0.0003837,53.217,204.1397,49.6347,310.498,0.0026179,0.00041424,0.0,0 STARLINK-3313,1 50157U 21125B   22339.04392055  .00041424  00000-0  26179-2 0  9998,2 50157  53.2170 204.1397 0003837  49.6347 310.4980 15.08663617 53622,6918.42,95.449,542.939,537.63,0.0
50157.0,STARLINK-3313,PAYLOAD,2022-12-05 20:07:47,15.08841125,0.0002757,53.2171,200.5712,41.0093,319.1106,5.0804e-05,5.2e-06,0.0,0 STARLINK-3313,1 50157U 21125B   22339.83874729  .00000520  00000-0  50804-4 0  9994,2 50157  53.2171 200.5712 0002757  41.0093 319.1106 15.08841125 56876,6917.877,95.437,541.649,537.835,0.0
50157.0,STARLINK-3313,PAYLOAD,2022-12-06 02:29:20,15.08838591,0.0002762,53.2171,199.3816,40.4124,319.7073,2.0302e-05,3.5e-07,0.0,0 STARLINK-3313,1 50157U 21125B   22340.10370951  .00000035  00000-0  20302-4 0  9995,2 50157  53.2171 199.3816 0002762  40.4124 319.7073 15.08838591 53789,6917.885,95.438,541.66,537.839,0.0
50157.0,STARLINK-3313,PAYLOAD,2022-12-06 07:15:29,15.08841362,0.000277,53.2171,198.4896,40.5608,319.559,2.5879e-06,-2.47e-06,0.0,0 STARLINK-3313,1 50157U 21125B   22340.30242830 -.00000247  00000-0  25879-5 0  9992,2 50157  53.2171 198.4896 0002770  40.5608 319.5590 15.08841362 56947,6917.876,95.437,541.6569999999998,537.825,0.0
50157.0,STARLINK-3313,PAYLOAD,2022-12-07 00:44:45,15.08828261,0.0002742,53.217,195.2191,41.5812,318.5388,-3.7846e-05,-8.91e-06,0.0,0 STARLINK-3313,1 50157U 21125B   22341.03108014 -.00000891  00000-0 -37846-4 0  9990,2 50157  53.2170 195.2191 0002742  41.5812 318.5388 15.08828261 53928,6917.916,95.438,541.678,537.884,0.0
50157.0,STARLINK-3313,PAYLOAD,2022-12-07 15:03:13,15.088300899999998,0.000269,53.2168,192.5423,40.5624,319.5569,3.9159e-05,3.35e-06,0.0,0 STARLINK-3313,1 50157U 21125B   22341.62723972  .00000335  00000-0  39159-4 0  9991,2 50157  53.2168 192.5423 0002690  40.5624 319.5569 15.08830090 57148,6917.911,95.438,541.637,537.915,0.0
50157.0,STARLINK-3313,PAYLOAD,2022-12-08 00:35:32,15.08836155,0.0002745,53.2169,190.758,42.3382,317.7821,0.00010482,1.3800000000000008e-05,0.0,0 STARLINK-3313,1 50157U 21125B   22342.02467666  .00001380  00000-0  10482-3 0  9999,2 50157  53.2169 190.7580 0002745  42.3382 317.7821 15.08836155 54073,6917.892,95.438,541.656,537.8580000000002,0.0
50157.0,STARLINK-3313,PAYLOAD,2022-12-08 13:18:36,15.08849853,0.0002621,53.2175,188.3791,40.6998,319.4189,-1.5117e-05,-5.29e-06,0.0,0 STARLINK-3313,1 50157U 21125B   22342.55458952 -.00000529  00000-0 -15117-4 0  9992,2 50157  53.2175 188.3791 0002621  40.6998 319.4189 15.08849853 57285,6917.85,95.437,541.528,537.9019999999998,0.0
50157.0,STARLINK-3313,PAYLOAD,2022-12-09 06:47:50,15.08844961,0.0002345,53.2172,185.1084,50.0357,310.0841,0.00021191,3.086e-05,0.0,0 STARLINK-3313,1 50157U 21125B   22343.28322783  .00003086  00000-0  21191-3 0  9992,2 50157  53.2172 185.1084 0002345  50.0357 310.0841 15.08844961 57398,6917.865,95.437,541.352,538.1080000000002,0.0
50157.0,STARLINK-3313,PAYLOAD,2022-12-09 19:30:57,15.0882914,0.0002621,53.2175,182.7309,43.3799,316.7399,-1.7698e-05,-5.700000000000001e-06,0.0,0 STARLINK-3313,1 50157U 21125B   22343.81316643 -.00000570  00000-0 -17698-4 0  9994,2 50157  53.2175 182.7309 0002621  43.3799 316.7399 15.08829140 54341,6917.9140000000025,95.438,541.592,537.965,0.0
50157.0,STARLINK-3313,PAYLOAD,2022-12-10 00:17:07,15.08827756,0.0002577,53.2171,181.8384,43.5373,316.5822,-3.3244e-05,-8.17e-06,0.0,0 STARLINK-3313,1 50157U 21125B   22344.01188873 -.00000817  00000-0 -33244-4 0  9998,2 50157  53.2171 181.8384 0002577  43.5373 316.5822 15.08827756 57501,6917.918000000002,95.438,541.566,538.0,0.0
50157.0,STARLINK-3313,PAYLOAD,2022-12-10 17:46:24,15.08800573,0.0001705,53.2196,178.5643,34.727,325.3834,-0.00012214,-2.229e-05,0.0,0 STARLINK-3313,1 50157U 21125B   22344.74055557 -.00002229  00000-0 -12214-3 0  9992,2 50157  53.2196 178.5643 0001705  34.7270 325.3834 15.08800573 54482,6918.001,95.44,541.045,538.686,0.0
50157.0,STARLINK-3313,PAYLOAD,2022-12-10 19:21:47,15.08800742,0.0002622,53.2172,178.2694,43.3072,316.8126,-0.00033146,-5.554e-05,0.0,0 STARLINK-3313,1 50157U 21125B   22344.80680497 -.00005554  00000-0 -33146-3 0  9997,2 50157  53.2172 178.2694 0002622  43.3072 316.8126 15.08800742 57620,6918.0,95.44,541.679,538.0509999999998,0.0
50157.0,STARLINK-3313,PAYLOAD,2022-12-11 19:12:32,15.08832306,0.0002637,53.2176,173.8096,42.2678,317.8517,0.00021659,3.16e-05,0.0,0 STARLINK-3313,1 50157U 21125B   22345.80037605  .00003160  00000-0  21659-3 0  9990,2 50157  53.2176 173.8096 0002637  42.2678 317.8517 15.08832306 54642,6917.904,95.438,541.5930000000002,537.945,0.0
50157.0,STARLINK-3313,PAYLOAD,2022-12-11 22:23:18,15.08835733,0.0002883,53.2184,173.2138,40.8726,319.2482,0.00022157,3.239e-05,0.0,0 STARLINK-3313,1 50157U 21125B   22345.93285573  .00003239  00000-0  22157-3 0  9994,2 50157  53.2184 173.2138 0002883  40.8726 319.2482 15.08835733 57796,6917.893,95.438,541.753,537.764,0.0
50157.0,STARLINK-3313,PAYLOAD,2022-12-12 22:14:05,15.08834619,0.0002478,53.2171,168.7528,29.8254,330.2879,0.00040089,6.097e-05,0.0,0 STARLINK-3313,1 50157U 21125B   22346.92645516  .00006097  00000-0  40089-3 0  9990,2 50157  53.2171 168.7528 0002478  29.8254 330.2879 15.08834619 54812,6917.897,95.438,541.476,538.048,0.0
50157.0,STARLINK-3313,PAYLOAD,2022-12-13 12:32:33,15.08855216,0.0002101,53.2173,166.0762,44.4126,315.7034,7.956800000000001e-05,9.79e-06,0.0,0 STARLINK-3313,1 50157U 21125B   22347.52260629  .00000979  00000-0  79568-4 0  9993,2 50157  53.2173 166.0762 0002101  44.4126 315.7034 15.08855216 58034,6917.834,95.437,541.1519999999998,538.245,0.0
50157.0,STARLINK-3313,PAYLOAD,2022-12-13 18:54:05,15.08851407,0.0002418,53.2177,164.8868,44.0523,316.0662,5.1387e-05,5.3e-06,0.0,0 STARLINK-3313,1 50157U 21125B   22347.78756828  .00000530  00000-0  51387-4 0  9994,2 50157  53.2177 164.8868 0002418  44.0523 316.0662 15.08851407 58072,6917.846,95.437,541.383,538.038,0.0
